[{"OBJECT_NAME":"SXM-10","OBJECT_ID":"2025-122A","EPOCH":"2026-03-05T03:49:38.659872","MEAN_MOTION":1.00270923,"ECCENTRICITY":0.00028481,"INCLINATION":0.0247,"RA_OF_ASC_NODE":67.2363,"ARG_OF_PERICENTER":299.6621,"MEAN_ANOMALY":97.2175,"EPHEMERIS_TYPE":0,"CLASSIFICATION_TYPE":"U","NORAD_CAT_ID":64290,"ELEMENT_SET_NO":999,"REV_AT_EPOCH":264,"BSTAR":0,"MEAN_MOTION_DOT":-2.5e-7,"MEAN_MOTION_DDOT":0},{"OBJECT_NAME":"INTELSAT 33E DEB","OBJECT_ID":"2016-053Y","EPOCH":"2026-03-03T02:21:25.849440","MEAN_MOTION":1.08355555,"ECCENTRICITY":0.0627082,"INCLINATION":1.146,"RA_OF_ASC_NODE":38.1194,"ARG_OF_PERICENTER":339.8301,"MEAN_ANOMALY":18.7694,"EPHEMERIS_TYPE":0,"CLASSIFICATION_TYPE":"U","NORAD_CAT_ID":64394,"ELEMENT_SET_NO":999,"REV_AT_EPOCH":529,"BSTAR":0,"MEAN_MOTION_DOT":-1.38e-6,"MEAN_MOTION_DDOT":0},{"OBJECT_NAME":"INTELSAT 33E DEB","OBJECT_ID":"2016-053Z","EPOCH":"2026-03-03T22:18:35.471808","MEAN_MOTION":0.99834538,"ECCENTRICITY":0.00871058,"INCLINATION":2.1331,"RA_OF_ASC_NODE":116.3461,"ARG_OF_PERICENTER":204.3133,"MEAN_ANOMALY":155.6877,"EPHEMERIS_TYPE":0,"CLASSIFICATION_TYPE":"U","NORAD_CAT_ID":64395,"ELEMENT_SET_NO":999,"REV_AT_EPOCH":487,"BSTAR":0,"MEAN_MOTION_DOT":-2.2e-6,"MEAN_MOTION_DDOT":0},{"OBJECT_NAME":"INTELSAT 33E DEB","OBJECT_ID":"2016-053AA","EPOCH":"2026-03-04T22:31:43.427712","MEAN_MOTION":0.98614639,"ECCENTRICITY":0.01102131,"INCLINATION":1.3049,"RA_OF_ASC_NODE":83.6193,"ARG_OF_PERICENTER":58.1024,"MEAN_ANOMALY":304.0373,"EPHEMERIS_TYPE":0,"CLASSIFICATION_TYPE":"U","NORAD_CAT_ID":64396,"ELEMENT_SET_NO":999,"REV_AT_EPOCH":495,"BSTAR":0,"MEAN_MOTION_DOT":-2.76e-6,"MEAN_MOTION_DDOT":0},{"OBJECT_NAME":"INTELSAT 33E DEB","OBJECT_ID":"2016-053AB","EPOCH":"2026-03-04T14:55:19.816896","MEAN_MOTION":0.99467847,"ECCENTRICITY":0.00471264,"INCLINATION":1.2697,"RA_OF_ASC_NODE":81.2865,"ARG_OF_PERICENTER":91.4567,"MEAN_ANOMALY":270.199,"EPHEMERIS_TYPE":0,"CLASSIFICATION_TYPE":"U","NORAD_CAT_ID":64397,"ELEMENT_SET_NO":999,"REV_AT_EPOCH":486,"BSTAR":0,"MEAN_MOTION_DOT":1.07e-6,"MEAN_MOTION_DDOT":0},{"OBJECT_NAME":"INTELSAT 33E DEB","OBJECT_ID":"2016-053AC","EPOCH":"2026-02-24T02:13:08.698656","MEAN_MOTION":1.00972481,"ECCENTRICITY":0.01983908,"INCLINATION":1.1692,"RA_OF_ASC_NODE":47.8448,"ARG_OF_PERICENTER":317.0627,"MEAN_ANOMALY":42.1986,"EPHEMERIS_TYPE":0,"CLASSIFICATION_TYPE":"U","NORAD_CAT_ID":64398,"ELEMENT_SET_NO":999,"REV_AT_EPOCH":487,"BSTAR":0,"MEAN_MOTION_DOT":2.1e-7,"MEAN_MOTION_DDOT":0},{"OBJECT_NAME":"INTELSAT 33E DEB","OBJECT_ID":"2016-053AD","EPOCH":"2026-02-25T20:18:20.472192","MEAN_MOTION":0.98863655,"ECCENTRICITY":0.05205843,"INCLINATION":1.3084,"RA_OF_ASC_NODE":58.8286,"ARG_OF_PERICENTER":324.974,"MEAN_ANOMALY":32.3647,"EPHEMERIS_TYPE":0,"CLASSIFICATION_TYPE":"U","NORAD_CAT_ID":64399,"ELEMENT_SET_NO":999,"REV_AT_EPOCH":472,"BSTAR":0,"MEAN_MOTION_DOT":-3.03e-6,"MEAN_MOTION_DDOT":0},{"OBJECT_NAME":"INTELSAT 33E DEB","OBJECT_ID":"2016-053AE","EPOCH":"2026-02-28T08:03:12.028032","MEAN_MOTION":1.03345253,"ECCENTRICITY":0.0480725,"INCLINATION":1.2056,"RA_OF_ASC_NODE":82.02,"ARG_OF_PERICENTER":305.7756,"MEAN_ANOMALY":50.5784,"EPHEMERIS_TYPE":0,"CLASSIFICATION_TYPE":"U","NORAD_CAT_ID":64400,"ELEMENT_SET_NO":999,"REV_AT_EPOCH":503,"BSTAR":0,"MEAN_MOTION_DOT":-3.6e-7,"MEAN_MOTION_DDOT":0},{"OBJECT_NAME":"INTELSAT 33E DEB","OBJECT_ID":"2016-053AF","EPOCH":"2026-02-19T17:44:03.387840","MEAN_MOTION":1.0581045,"ECCENTRICITY":0.07007585,"INCLINATION":1.1047,"RA_OF_ASC_NODE":72.8646,"ARG_OF_PERICENTER":295.665,"MEAN_ANOMALY":58.1706,"EPHEMERIS_TYPE":0,"CLASSIFICATION_TYPE":"U","NORAD_CAT_ID":64401,"ELEMENT_SET_NO":999,"REV_AT_EPOCH":506,"BSTAR":0,"MEAN_MOTION_DOT":-5.8e-7,"MEAN_MOTION_DDOT":0},{"OBJECT_NAME":"INTELSAT 33E DEB","OBJECT_ID":"2016-053AG","EPOCH":"2026-03-03T04:26:40.123104","MEAN_MOTION":0.98355069,"ECCENTRICITY":0.01209004,"INCLINATION":1.2366,"RA_OF_ASC_NODE":75.1099,"ARG_OF_PERICENTER":102.4572,"MEAN_ANOMALY":260.0667,"EPHEMERIS_TYPE":0,"CLASSIFICATION_TYPE":"U","NORAD_CAT_ID":64402,"ELEMENT_SET_NO":999,"REV_AT_EPOCH":482,"BSTAR":0,"MEAN_MOTION_DOT":-7.0e-7,"MEAN_MOTION_DDOT":0},{"OBJECT_NAME":"INTELSAT 33E DEB","OBJECT_ID":"2016-053AH","EPOCH":"2026-03-04T07:37:58.690560","MEAN_MOTION":1.0071164,"ECCENTRICITY":0.00627005,"INCLINATION":1.1681,"RA_OF_ASC_NODE":63.555,"ARG_OF_PERICENTER":335.6252,"MEAN_ANOMALY":25.318,"EPHEMERIS_TYPE":0,"CLASSIFICATION_TYPE":"U","NORAD_CAT_ID":64403,"ELEMENT_SET_NO":999,"REV_AT_EPOCH":490,"BSTAR":0,"MEAN_MOTION_DOT":-1.4e-6,"MEAN_MOTION_DDOT":0},{"OBJECT_NAME":"INTELSAT 33E DEB","OBJECT_ID":"2016-053AJ","EPOCH":"2026-03-04T13:12:41.358816","MEAN_MOTION":0.99864029,"ECCENTRICITY":0.01068944,"INCLINATION":1.1793,"RA_OF_ASC_NODE":57.3496,"ARG_OF_PERICENTER":25.9709,"MEAN_ANOMALY":335.7766,"EPHEMERIS_TYPE":0,"CLASSIFICATION_TYPE":"U","NORAD_CAT_ID":64404,"ELEMENT_SET_NO":999,"REV_AT_EPOCH":486,"BSTAR":0,"MEAN_MOTION_DOT":2.0e-7,"MEAN_MOTION_DDOT":0},{"OBJECT_NAME":"INTELSAT 33E DEB","OBJECT_ID":"2016-053AK","EPOCH":"2026-03-04T12:03:37.556928","MEAN_MOTION":0.9950318,"ECCENTRICITY":0.0063897,"INCLINATION":1.457,"RA_OF_ASC_NODE":95.78,"ARG_OF_PERICENTER":9.9283,"MEAN_ANOMALY":351.0569,"EPHEMERIS_TYPE":0,"CLASSIFICATION_TYPE":"U","NORAD_CAT_ID":64405,"ELEMENT_SET_NO":999,"REV_AT_EPOCH":486,"BSTAR":0,"MEAN_MOTION_DOT":-2.63e-6,"MEAN_MOTION_DDOT":0},{"OBJECT_NAME":"INTELSAT 33E DEB","OBJECT_ID":"2016-053AL","EPOCH":"2026-03-04T12:31:38.481024","MEAN_MOTION":0.98884737,"ECCENTRICITY":0.0127574,"INCLINATION":1.2044,"RA_OF_ASC_NODE":68.6153,"ARG_OF_PERICENTER":43.8688,"MEAN_ANOMALY":318.349,"EPHEMERIS_TYPE":0,"CLASSIFICATION_TYPE":"U","NORAD_CAT_ID":64406,"ELEMENT_SET_NO":999,"REV_AT_EPOCH":480,"BSTAR":0,"MEAN_MOTION_DOT":-5.6e-7,"MEAN_MOTION_DDOT":0},{"OBJECT_NAME":"INTELSAT 33E DEB","OBJECT_ID":"2016-053AN","EPOCH":"2026-03-03T22:48:05.805216","MEAN_MOTION":1.03169902,"ECCENTRICITY":0.16487909,"INCLINATION":2.1284,"RA_OF_ASC_NODE":99.3214,"ARG_OF_PERICENTER":273.9713,"MEAN_ANOMALY":67.9273,"EPHEMERIS_TYPE":0,"CLASSIFICATION_TYPE":"U","NORAD_CAT_ID":64408,"ELEMENT_SET_NO":999,"REV_AT_EPOCH":499,"BSTAR":0,"MEAN_MOTION_DOT":-2.07e-6,"MEAN_MOTION_DDOT":0},{"OBJECT_NAME":"INTELSAT 33E DEB","OBJECT_ID":"2016-053AP","EPOCH":"2026-03-04T15:12:33.143616","MEAN_MOTION":0.99465514,"ECCENTRICITY":0.0052442,"INCLINATION":1.2544,"RA_OF_ASC_NODE":79.3741,"ARG_OF_PERICENTER":77.2813,"MEAN_ANOMALY":284.4416,"EPHEMERIS_TYPE":0,"CLASSIFICATION_TYPE":"U","NORAD_CAT_ID":64409,"ELEMENT_SET_NO":999,"REV_AT_EPOCH":482,"BSTAR":0,"MEAN_MOTION_DOT":1.1e-6,"MEAN_MOTION_DDOT":0},{"OBJECT_NAME":"INTELSAT 33E DEB","OBJECT_ID":"2016-053AQ","EPOCH":"2026-03-02T22:44:54.390336","MEAN_MOTION":0.99992568,"ECCENTRICITY":0.0064416,"INCLINATION":1.1881,"RA_OF_ASC_NODE":69.3035,"ARG_OF_PERICENTER":349.8986,"MEAN_ANOMALY":11.1609,"EPHEMERIS_TYPE":0,"CLASSIFICATION_TYPE":"U","NORAD_CAT_ID":64410,"ELEMENT_SET_NO":999,"REV_AT_EPOCH":482,"BSTAR":0,"MEAN_MOTION_DOT":-2.51e-6,"MEAN_MOTION_DDOT":0}]
