SXM-10                  
1 64290U 25122A   26064.15947523 -.00000025  00000+0  00000+0 0  9993
2 64290   0.0247  67.2363 0002848 299.6621  97.2175  1.00270923  2647
INTELSAT 33E DEB        
1 64394U 16053Y   26062.09821585 -.00000138  00000+0  00000+0 0  9996
2 64394   1.1460  38.1194 0627082 339.8301  18.7694  1.08355555  5296
INTELSAT 33E DEB        
1 64395U 16053Z   26062.92957722 -.00000220  00000+0  00000+0 0  9994
2 64395   2.1331 116.3461 0087105 204.3133 155.6877  0.99834538  4875
INTELSAT 33E DEB        
1 64396U 16053AA  26063.93869708 -.00000276  00000+0  00000+0 0  9994
2 64396   1.3049  83.6193 0110213  58.1024 304.0373  0.98614639  4959
INTELSAT 33E DEB        
1 64397U 16053AB  26063.62175714  .00000107  00000+0  00000+0 0  9990
2 64397   1.2697  81.2865 0047126  91.4567 270.1990  0.99467847  4868
INTELSAT 33E DEB        
1 64398U 16053AC  26055.09246179  .00000021  00000+0  00000+0 0  9992
2 64398   1.1692  47.8448 0198390 317.0627  42.1986  1.00972481  4873
INTELSAT 33E DEB        
1 64399U 16053AD  26056.84607028 -.00000303  00000+0  00000+0 0  9995
2 64399   1.3084  58.8286 0520584 324.9740  32.3647  0.98863655  4727
INTELSAT 33E DEB        
1 64400U 16053AE  26059.33555588 -.00000036  00000+0  00000+0 0  9991
2 64400   1.2056  82.0200 0480725 305.7756  50.5784  1.03345253  5034
INTELSAT 33E DEB        
1 64401U 16053AF  26050.73892810 -.00000058  00000+0  00000+0 0  9993
2 64401   1.1047  72.8646 0700758 295.6650  58.1706  1.05810450  5065
INTELSAT 33E DEB        
1 64402U 16053AG  26062.18518661 -.00000070  00000+0  00000+0 0  9999
2 64402   1.2366  75.1099 0120900 102.4572 260.0667  0.98355069  4826
INTELSAT 33E DEB        
1 64403U 16053AH  26063.31804040 -.00000140  00000+0  00000+0 0  9993
2 64403   1.1681  63.5550 0062700 335.6252  25.3180  1.00711640  4903
INTELSAT 33E DEB        
1 64404U 16053AJ  26063.55047869  .00000020  00000+0  00000+0 0  9994
2 64404   1.1793  57.3496 0106894  25.9709 335.7766  0.99864029  4867
INTELSAT 33E DEB        
1 64405U 16053AK  26063.50251802 -.00000263  00000+0  00000+0 0  9994
2 64405   1.4570  95.7800 0063897   9.9283 351.0569  0.99503180  4863
INTELSAT 33E DEB        
1 64406U 16053AL  26063.52197316 -.00000056  00000+0  00000+0 0  9996
2 64406   1.2044  68.6153 0127574  43.8688 318.3490  0.98884737  4809
INTELSAT 33E DEB        
1 64408U 16053AN  26062.95006719 -.00000207  00000+0  00000+0 0  9998
2 64408   2.1284  99.3214 1648790 273.9713  67.9273  1.03169902  4993
INTELSAT 33E DEB        
1 64409U 16053AP  26063.63371694  .00000110  00000+0  00000+0 0  9994
2 64409   1.2544  79.3741 0052442  77.2813 284.4416  0.99465514  4823
INTELSAT 33E DEB        
1 64410U 16053AQ  26061.94785174 -.00000251  00000+0  00000+0 0  9997
2 64410   1.1881  69.3035 0064416 349.8986  11.1609  0.99992568  4829
